      2.10          N: GNSS NAV DATA                        RINEX VERSION / TYPE
fic2rin                                 05/05/2023 00:17:59 PGM / RUN BY / DATE
                                                            END OF HEADER
21 23  5  4  1 59 44.0  .153990928084D-03 -.113686837722D-12  .000000000000D+00
     .600000000000D+01 -.850625000000D+02  .434232373236D-08  .113602601938D+01
    -.464916229248D-05  .246940414654D-01  .974349677563D-05  .515363050652D+04
     .352784000000D+06  .586733222008D-06  .266600795873D+01 -.221654772758D-06
     .961892551440D+00  .192937500000D+03 -.766926209875D+00 -.793533053837D-08
    -.903609067516D-10  .100000000000D+01  .226000000000D+04  .000000000000D+00
     .240000000000D+01  .000000000000D+00 -.102445483208D-07  .600000000000D+01
     .345600000000D+06  .400000000000D+01
17 23  5  4  1 59 44.0  .713420100510D-03  .159161572810D-11  .000000000000D+00
     .600000000000D+01 -.664375000000D+02  .448518682603D-08  .113617710371D+01
    -.355578958988D-05  .134966915939D-01  .328570604324D-05  .515375347519D+04
     .352784000000D+06 -.162050127983D-06  .176634062048D+01 -.314787030220D-06
     .974233532326D+00  .321218750000D+03 -.140980473619D+01 -.843213694664D-08
    -.138220043134D-09  .100000000000D+01  .226000000000D+04  .000000000000D+00
     .240000000000D+01  .000000000000D+00 -.111758708954D-07  .600000000000D+01
     .345600000000D+06  .400000000000D+01
32 23  5  4  1 59 44.0 -.467761885375D-03 -.954969436862D-11  .000000000000D+00
     .370000000000D+02 -.342187500000D+02  .503699552537D-08  .183387528710D+01
    -.193528831005D-05  .688256393187D-02  .485777854919D-05  .515373172379D+04
     .352784000000D+06 -.134110450745D-06 -.144633233771D+01 -.875443220139D-07
     .959131145811D+00  .288687500000D+03 -.220816530466D+01 -.836284834620D-08
    -.406088343781D-09  .100000000000D+01  .226000000000D+04  .000000000000D+00
     .240000000000D+01  .000000000000D+00  .465661287308D-09  .370000000000D+02
     .345600000000D+06  .400000000000D+01
19 23  5  4  1 59 44.0  .312150456011D-03  .511590769747D-11  .000000000000D+00
     .480000000000D+02 -.743125000000D+02  .441196949052D-08 -.296873031078D+01
    -.366009771824D-05  .935737637337D-02  .303052365780D-05  .515361760521D+04
     .352784000000D+06 -.819563865662D-07  .181092619568D+01  .167638063431D-06
     .973289988200D+00  .320187500000D+03  .228401616756D+01 -.815962559544D-08
    -.163935399996D-09  .100000000000D+01  .226000000000D+04  .000000000000D+00
     .240000000000D+01  .000000000000D+00 -.153668224812D-07  .480000000000D+02
     .345600000000D+06  .400000000000D+01
3  23  5  4  2  0  0.0 -.313180498779D-03  .103455022327D-10  .000000000000D+00
     .270000000000D+02  .466875000000D+02  .442196990708D-08 -.216010877199D+01
     .244379043579D-05  .473575852811D-02  .804662704468D-05  .515367306709D+04
     .352800000000D+06  .782310962677D-07 -.248410772412D+01  .372529029846D-07
     .978686325802D+00  .234812500000D+03  .101305435888D+01 -.789318592573D-08
     .611454040944D-09  .100000000000D+01  .226000000000D+04  .000000000000D+00
     .240000000000D+01  .000000000000D+00  .186264514923D-08  .270000000000D+02
     .345600000000D+06  .400000000000D+01
2  23  5  4  2  0  0.0 -.599770341069D-03  .386535248253D-11  .000000000000D+00
     .690000000000D+02 -.940937500000D+02  .404266839337D-08  .306653088724D+01
    -.495836138725D-05  .173592026113D-01  .111330300570D-04  .515952968407D+04
     .352800000000D+06  .283122062683D-06  .267071242093D+01  .158324837685D-06
     .967574921711D+00  .160343750000D+03 -.129088016833D+01 -.750959851921D-08
    -.664313385605D-10  .100000000000D+01  .226000000000D+04  .000000000000D+00
     .240000000000D+01  .000000000000D+00 -.176951289177D-07  .690000000000D+02
     .345600000000D+06  .400000000000D+01
1  23  5  4  2  0  0.0  .188064295799D-03 -.295585778076D-11  .000000000000D+00
     .131000000000D+03 -.652500000000D+02  .371194033150D-08 -.100899500844D+01
    -.315904617310D-05  .128003610298D-01  .111684203148D-04  .515364923286D+04
     .352800000000D+06  .126659870148D-06  .276896629573D+01  .240281224251D-06
     .990119384618D+00  .180218750000D+03  .955232077067D+00 -.765353308609D-08
     .110718897601D-10  .100000000000D+01  .226000000000D+04  .000000000000D+00
     .340000000000D+01  .000000000000D+00  .465661287308D-08  .131000000000D+03
     .345600000000D+06  .400000000000D+01
12 23  5  4  2  0  0.0 -.371686182916D-03 -.466116034659D-11  .000000000000D+00
     .590000000000D+02  .117000000000D+03  .437732519031D-08 -.240467546368D+01
     .603869557381D-05  .886566506233D-02  .543892383575D-05  .515361556435D+04
     .352800000000D+06  .109896063805D-06  .726713668393D+00 -.949949026108D-07
     .965860231041D+00  .276937500000D+03  .136668364439D+01 -.804533512050D-08
     .436446751188D-09  .100000000000D+01  .226000000000D+04  .000000000000D+00
     .240000000000D+01  .000000000000D+00 -.125728547573D-07  .590000000000D+02
     .345600000000D+06  .400000000000D+01
10 23  5  4  2  0  0.0 -.354521907866D-04 -.159161572810D-11  .000000000000D+00
     .800000000000D+02  .435000000000D+02  .433982362822D-08 -.311120485049D+01
     .219419598579D-05  .848128204234D-02  .859610736370D-05  .515368289757D+04
     .352800000000D+06 -.633299350739D-07 -.248676231479D+01 -.193715095520D-06
     .978427169865D+00  .223250000000D+03 -.242920457538D+01 -.775246577846D-08
     .547522806523D-09  .100000000000D+01  .226000000000D+04  .000000000000D+00
     .240000000000D+01  .000000000000D+00  .232830643654D-08  .800000000000D+02
     .345600000000D+06  .400000000000D+01
7  23  5  4  2  0  0.0  .186742749065D-03 -.898126018001D-11  .000000000000D+00
     .410000000000D+02  .204687500000D+02  .436839624695D-08 -.163570451418D+01
     .884756445885D-06  .172142261872D-01  .115986913443D-04  .515375522232D+04
     .352800000000D+06  .406056642532D-06 -.387474050341D+00 -.838190317154D-07
     .950717390453D+00  .148531250000D+03 -.220041075775D+01 -.769424906779D-08
    -.373229832235D-09  .100000000000D+01  .226000000000D+04  .000000000000D+00
     .240000000000D+01  .000000000000D+00 -.111758708954D-07  .410000000000D+02
     .345600000000D+06  .400000000000D+01
8  23  5  4  2  0  0.0 -.120777636766D-03 -.181898940355D-11  .000000000000D+00
     .980000000000D+02 -.472500000000D+02  .481591488790D-08  .118306132698D+01
    -.248663127422D-05  .846184568945D-02  .228732824326D-05  .515368924713D+04
     .352800000000D+06 -.149011611938D-07  .167760774424D+01  .819563865662D-07
     .958674336474D+00  .334437500000D+03  .262778514968D+00 -.853606984729D-08
    -.211437378644D-09  .100000000000D+01  .226000000000D+04  .000000000000D+00
     .240000000000D+01  .000000000000D+00  .512227416039D-08  .980000000000D+02
     .345600000000D+06  .400000000000D+01
9  23  5  4  2  0  0.0 -.166560988873D-03  .818545231596D-11  .000000000000D+00
     .121000000000D+03 -.331250000000D+02  .506485382863D-08  .158930994276D+01
    -.190548598766D-05  .234662950970D-02  .463984906673D-05  .515361785889D+04
     .352800000000D+06 -.335276126862D-07 -.145940325181D+01 -.428408384323D-07
     .955496265443D+00  .282937500000D+03  .195607738686D+01 -.836713423901D-08
    -.415017287136D-09  .100000000000D+01  .226000000000D+04  .000000000000D+00
     .240000000000D+01  .000000000000D+00  .139698386192D-08  .121000000000D+03
     .345600000000D+06  .400000000000D+01
6  23  5  4  2  0  0.0  .588077586144D-03  .227373675443D-12  .000000000000D+00
     .660000000000D+02 -.721562500000D+02  .368658213237D-08 -.829722182014D+00
    -.407546758652D-05  .281633902341D-02  .121202319860D-04  .515366366386D+04
     .352800000000D+06 -.149011611938D-07  .276064534058D+01 -.335276126862D-07
     .989334201375D+00  .160093750000D+03 -.749527248247D+00 -.761960310134D-08
     .410731394325D-10  .100000000000D+01  .226000000000D+04  .000000000000D+00
     .240000000000D+01  .000000000000D+00  .372529029846D-08  .660000000000D+02
     .345600000000D+06  .400000000000D+01
5  23  5  4  2  0  0.0 -.125833787024D-03 -.147792889038D-11  .000000000000D+00
     .179000000000D+03  .463750000000D+02  .472983987396D-08  .159643710263D+01
     .237859785557D-05  .588178960606D-02  .887550413609D-05  .515365632629D+04
     .352800000000D+06 -.135973095894D-06 -.253036490559D+01 -.689178705215D-07
     .965745851328D+00  .213687500000D+03  .113811489377D+01 -.808855120634D-08
     .623954561641D-09  .100000000000D+01  .226000000000D+04  .000000000000D+00
     .240000000000D+01  .000000000000D+00 -.111758708954D-07  .179000000000D+03
     .345600000000D+06  .400000000000D+01
4  23  5  4  2  0  0.0  .325026921928D-04  .954969436862D-11  .000000000000D+00
     .830000000000D+02 -.363437500000D+02  .493556272886D-08  .704724650610D+00
    -.188313424587D-05  .236183067318D-02  .487454235554D-05  .515367318726D+04
     .352800000000D+06 -.223517417908D-07 -.140287147148D+01 -.614672899246D-07
     .962232217611D+00  .280906250000D+03 -.297616499944D+01 -.836070539980D-08
    -.475376944215D-09  .100000000000D+01  .226000000000D+04  .000000000000D+00
     .240000000000D+01  .000000000000D+00 -.465661287308D-08  .595000000000D+03
     .345600000000D+06  .400000000000D+01
29 23  5  4  2  0  0.0 -.598073471338D-03 -.147792889038D-11  .000000000000D+00
     .340000000000D+02 -.714062500000D+02  .439982612756D-08  .131849089795D+01
    -.368431210518D-05  .248040480074D-02  .290572643280D-05  .515377304077D+04
     .352800000000D+06  .856816768646D-07  .178037793241D+01  .428408384323D-07
     .976480723713D+00  .332156250000D+03  .236632965540D+01 -.829963142725D-08
    -.190007914592D-09  .100000000000D+01  .226000000000D+04  .000000000000D+00
     .240000000000D+01  .000000000000D+00 -.102445483208D-07  .340000000000D+02
     .345600000000D+06  .400000000000D+01
